IRIDIUM 106             
1 41917U 17003A   23303.52251936  .00000149  00000+0  46088-4 0  9990
2 41917  86.3942 130.0343 0002067  95.0092 265.1340 14.34218275355517
IRIDIUM 103             
1 41918U 17003B   23302.88193095  .00000154  00000+0  47871-4 0  9997
2 41918  86.3943 130.2048 0001768  87.1434 272.9964 14.34217062355445
IRIDIUM 109             
1 41919U 17003C   23302.88828002  .00000156  00000+0  48788-4 0  9991
2 41919  86.3944 130.2456 0002113  82.2431 277.9004 14.34216943355412
IRIDIUM 102             
1 41920U 17003D   23302.92633328  .00000162  00000+0  50743-4 0  9994
2 41920  86.3942 130.1738 0002234  84.4010 275.7441 14.34212828355504
IRIDIUM 105             
1 41921U 17003E   23302.89700489  .00000184  00000+0  58743-4 0  9996
2 41921  86.3928  98.5936 0002019  92.1084 268.0342 14.34210262357354
IRIDIUM 104             
1 41922U 17003F   23302.93901266  .00000155  00000+0  48320-4 0  9996
2 41922  86.3943 130.1965 0001933  83.9062 276.2354 14.34216297355496
IRIDIUM 114             
1 41923U 17003G   23302.94534596  .00000166  00000+0  52160-4 0  9995
2 41923  86.3943 130.1805 0002255  97.0459 263.0993 14.34218785355479
IRIDIUM 108             
1 41924U 17003H   23302.97363653  .00000173  00000+0  54725-4 0  9990
2 41924  86.3924  98.5011 0001992  99.7622 260.3799 14.34218933357351
